GALAXY 15 (G-15)        
1 28884U 05041A   18108.47079448  .00000071  00000-0  00000+0 0  9998
2 28884   0.0089 249.5024 0001833 136.4389 217.0712  1.00275230 45722
SYRACUSE 3A             
1 28885U 05041B   18108.18053257  .00000122  00000-0  00000+0 0  9994
2 28885   0.0226 280.8115 0003536 118.9243 278.5038  1.00274723 45821
INMARSAT 4-F2           
1 28899U 05044A   18107.30007927  .00000007  00000-0  00000+0 0  9990
2 28899   2.6582  17.5369 0003426  27.4171 332.3161  1.00270918 45599
TELKOM 2                
1 28902U 05046A   18108.43729882 -.00000145  00000-0  00000+0 0  9997
2 28902   0.0268 126.4919 0000902 353.6661  40.7642  1.00270846 45349
SPACEWAY 2              
1 28903U 05046B   18107.64739326 -.00000133  00000-0  00000+0 0  9991
2 28903   0.0026  55.3461 0000066 191.1528  93.2134  1.00271756 45588
INSAT-4A                
1 28911U 05049A   18108.19649144 -.00000172  00000-0  00000+0 0  9995
2 28911   0.0913  99.6029 0004185 229.9822  30.3993  1.00272111 45194
METEOSAT-9 (MSG-2)      
1 28912U 05049B   18108.31396200  .00000014  00000-0  00000+0 0  9996
2 28912   2.8045  71.6333 0001245 292.6848 318.4071  1.00275188 45170
EUTELSAT 172A (GE-23)   
1 28924U 05052A   18108.13216264  .00000003  00000-0  00000+0 0  9992
2 28924   0.0759 346.5315 0005811  44.2154  37.0332  1.00273325 45088
ECHOSTAR 10             
1 28935U 06003A   18108.43870566 -.00000063  00000-0  00000+0 0  9992
2 28935   0.0489  72.8283 0001142 329.0734 212.3421  1.00272638 44615
HIMAWARI-7 (MTSAT-2)    
1 28937U 06004A   18108.48572928 -.00000251  00000-0  00000+0 0  9990
2 28937   0.0184 138.2243 0003860 256.8127 131.3437  1.00268962 44458
SPAINSAT                
1 28945U 06007A   18107.51225883 -.00000222  00000-0  00000-0 0  9999
2 28945   0.0243 232.8972 0002868 140.6752 346.4442  1.00270786 44322
EUTELSAT HOT BIRD 13E   
1 28946U 06007B   18107.39327605  .00000081  00000-0  00000-0 0  9993
2 28946   0.0538 250.9423 0002590 181.9066 287.1882  1.00271831 44387
JCSAT-5A                
1 29045U 06010A   18107.75188417 -.00000334  00000-0  00000-0 0  9996
2 29045   0.0148 248.9254 0001591 148.6507 210.9820  1.00271099 43857
ASTRA 1KR               
1 29055U 06012A   18107.57754288  .00000114  00000-0  00000+0 0  9998
2 29055   0.0420 268.1297 0001370  46.1638 118.4663  1.00273471 43835
GOES 13                 
1 29155U 06018A   18107.59618584 -.00000289  00000-0  00000-0 0  9990
2 29155   0.2930 274.7757 0006839 134.2717 311.0207  1.00282968 13473
EUTELSAT 113 WEST A     
1 29162U 06020A   18106.74503862 -.00000042  00000-0  00000-0 0  9996
2 29162   0.0464  86.9144 0003454 314.6310 318.4894  1.00271718 43564
THAICOM 5               
1 29163U 06020B   18108.47255668 -.00000128  00000-0  00000+0 0  9991
2 29163   0.0165 255.8625 0003287 106.1089  93.1823  1.00271904 43639
GALAXY 16 (G-16)        
1 29236U 06023A   18107.86277850 -.00000133  00000-0  00000-0 0  9991
2 29236   0.0186 242.3553 0002541 139.0302  36.1412  1.00272010 43325
EUTELSAT HOT BIRD 13B   
1 29270U 06032A   18108.41296032  .00000079  00000-0  00000+0 0  9991
2 29270   0.0866 327.7200 0005708  45.0618 355.3446  1.00271652 42962
JCSAT-3A                
1 29272U 06033A   18107.83617157 -.00000351  00000-0  00000-0 0  9999
2 29272   0.0205 267.3458 0002197 138.6009 228.9943  1.00271241 17836
SYRACUSE 3B             
1 29273U 06033B   18108.41782041 -.00000051  00000-0  00000+0 0  9996
2 29273   0.0105 238.1850 0004855 137.8483 335.6576  1.00271232 42856
KOREASAT 5 (MUGUNGWHA 5)
1 29349U 06034A   18108.42468916 -.00000365  00000-0  00000+0 0  9992
2 29349   0.0426  72.9821 0001266 354.1055  45.3602  1.00271105 42731
ZHONGXING-22A           
1 29398U 06038A   18107.59697096  .00000018  00000-0  00000-0 0  9995
2 29398   6.2926  56.0607 0004953 311.0722  61.8836  1.00098843 42505
DIRECTV 9S              
1 29494U 06043A   18108.42992689 -.00000121  00000-0  00000+0 0  9992
2 29494   0.0213 149.9158 0002837 236.6070 233.6451  1.00271096 42205
OPTUS D1                
1 29495U 06043B   18107.84262703 -.00000117  00000-0  00000-0 0  9991
2 29495   0.0169 250.1896 0003328 133.6089 285.4555  1.00270447 42212
XM-4 (BLUES)            
1 29520U 06049A   18107.93134584 -.00000029  00000-0  00000+0 0  9992
2 29520   0.0213  49.8310 0000076 110.2525 265.9824  1.00270983 42091
BADR-4                  
1 29526U 06051A   18107.81593286  .00000139  00000-0  00000+0 0  9997
2 29526   0.0634 322.1964 0004965  35.5844 167.8503  1.00275596 41986
FENGYUN 2D              
1 29640U 06053A   18107.84515214 -.00000364  00000-0  10000-3 0  9990
2 29640   5.0074  62.8896 0005512 316.9373 254.1304  1.00271044 41657
WILDBLUE-1              
1 29643U 06054A   18108.51698442 -.00000057  00000-0  00000+0 0  9998
2 29643   0.0108 217.9237 0001578 175.5093 248.0905  1.00272263 41643
AMC-18                  
1 29644U 06054B   18108.41563174  .00000097  00000-0  00000+0 0  9994
2 29644   0.0315 278.3340 0001937 134.0845 164.7022  1.00271347 41651
MEASAT-3                
1 29648U 06056A   18108.09979764 -.00000248  00000-0  00000+0 0  9999
2 29648   0.0509 121.6085 0002120 322.4760 249.5117  1.00270710 41650
INSAT-4B                
1 30793U 07007A   18108.37479821 -.00000361  00000-0  00000+0 0  9995
2 30793   0.0497  98.1918 0003587 290.5128  64.0079  1.00271009 40662
SKYNET 5A               
1 30794U 07007B   18108.09979764 -.00000277  00000-0  00000+0 0  9992
2 30794   0.0703   1.5846 0003489  36.2171 299.4715  1.00269775 40742
ANIK F3                 
1 31102U 07009A   18108.50493400 -.00000008  00000-0  00000+0 0  9994
2 31102   0.0151 231.1466 0002215 147.2796 251.2010  1.00269761 40439
ASTRA 1L                
1 31306U 07016A   18107.67094693  .00000114  00000-0  00000+0 0  9993
2 31306   0.0840 296.4264 0003633  46.0092 124.0365  1.00274655 40135
GALAXY 17 (G-17)        
1 31307U 07016B   18108.07973392 -.00000181  00000-0  00000+0 0  9996
2 31307   0.0073  87.1864 0003178 307.2624 109.4156  1.00270605 40172
ZHONGXING-6B            
1 31800U 07031A   18107.85072600 -.00000368  00000-0  00000-0 0  9996
2 31800   0.0159 263.4737 0002450 110.4092 253.8094  1.00273225 39532
DIRECTV 10              
1 31862U 07032A   18107.71406027 -.00000109  00000-0  00000+0 0  9996
2 31862   0.0379  26.5339 0000406 117.0804 216.3970  1.00271465 39501
SPACEWAY 3              
1 32018U 07036A   18108.46646557 -.00000159  00000-0  00000+0 0  9996
2 32018   0.0437  58.1869 0000171 314.6983 266.6210  1.00271319 39223
BSAT-3A                 
1 32019U 07036B   18108.12207500 -.00000357  00000-0  00000+0 0  9991
2 32019   0.0516 145.3545 0000857 133.3748  81.2696  1.00272023 39163
INSAT-4CR               
1 32050U 07037A   18108.46627571  .00000118  00000-0  00000+0 0  9992
2 32050   0.0553 104.3523 0003054 241.0526  76.8554  1.00269863 38950
OPTUS D2                
1 32252U 07044A   18107.85092722 -.00000189  00000-0  00000+0 0  9999
2 32252   0.0156 254.3565 0003348 128.7564 281.1460  1.00271750 38533
INTELSAT 11 (IS-11)     
1 32253U 07044B   18108.17198772 -.00000275  00000-0  00000+0 0  9994
2 32253   0.0180 203.5801 0001278 189.7178 191.8678  1.00270747 38621
STAR ONE C1             
1 32293U 07056A   18107.60932356 -.00000282  00000-0  00000+0 0  9990
2 32293   0.0161 206.4989 0002932 184.6452 328.8732  1.00268015 38202
SKYNET 5B               
1 32294U 07056B   18108.40810024  .00000135  00000-0  00000+0 0  9993
2 32294   0.0773 342.4680 0003576  44.1196 351.9152  1.00274695 38294
ASTRA 4A (SIRIUS 4)     
1 32299U 07057A   18107.81130936  .00000026  00000-0  00000-0 0  9990
2 32299   0.0575  73.5289 0002746 314.8230 114.4085  1.00272691 21798
HORIZONS-2              
1 32388U 07063B   18107.81365480 -.00000188  00000-0  00000+0 0  9999
2 32388   0.0078 228.4331 0002775 155.9962 199.2130  1.00271132 37970
THURAYA-3               
1 32404U 08001A   18108.09979764 -.00000311  00000-0  00000+0 0  9996
2 32404   3.9312 357.3782 0004789  21.7098 321.4951  1.00270490 37630
EXPRESS-AM33            
1 32478U 08003A   18108.54792841 -.00000288  00000-0  00000+0 0  9991
2 32478   0.0192 311.6105 0000955 173.8012  14.9412  1.00270782 37712
THOR 5                  
1 32487U 08006A   18108.16712624 -.00000016  00000-0  00000+0 0  9992
2 32487   0.0096 232.0518 0002467 159.0267 234.5672  1.00271658 37279
KIZUNA (WINDS)          
1 32500U 08007A   18107.91112194 -.00000264  00000-0  00000-0 0  9993
2 32500   1.4834  88.4654 0002862 298.1773 290.3383  1.00271488 36998
AMC-14                  
1 32708U 08011A   18108.05327126  .00000093  00000-0  00000+0 0  9995
2 32708  19.6611  58.3376 0043767 356.1040 188.8407  1.00269499 38191
DIRECTV 11              
1 32729U 08013A   18108.29282252 -.00000133  00000-0  00000+0 0  9992
2 32729   0.0225  50.2854 0000233 234.4038 287.9069  1.00271711 37034
ICO G1                  
1 32763U 08016A   18108.44186851 -.00000181  00000-0  00000+0 0  9991
2 32763   3.7285 359.1717 0002952  33.8185 239.7290  1.00272243 36560
VINASAT-1               
1 32767U 08018A   18108.06099560 -.00000335  00000-0  00000+0 0  9996
2 32767   0.0052 194.4957 0001860 220.5112 305.0106  1.00268262 36709
STAR ONE C2             
1 32768U 08018B   18107.62309363 -.00000271  00000-0  00000+0 0  9992
2 32768   0.0574 108.8251 0001588 322.3914 288.8094  1.00272261 36644
TIANLIAN 1-01           
1 32779U 08019A   18107.87368926 -.00000144  00000-0  10000-3 0  9996
2 32779   2.8358  74.2917 0036731 241.6476 284.5726  1.00272890 36569
AMOS-3                  
1 32794U 08022A   18108.31239177 -.00000043  00000-0  00000+0 0  9995
2 32794   0.0199 225.3627 0002325 125.7349 323.6048  1.00270501 36546
GALAXY 18 (G-18)        
1 32951U 08024A   18107.76998493  .00000019  00000-0  00000+0 0  9995
2 32951   0.0135 248.7109 0002877 143.1580 328.1573  1.00271303 36182
